[{"OBJECT_NAME":"SSTL S1-4","OBJECT_ID":"2018-071A","EPOCH":"2026-03-09T21:46:24.134592","MEAN_MOTION":14.9621182,"ECCENTRICITY":0.00016592,"INCLINATION":97.5174,"RA_OF_ASC_NODE":304.5632,"ARG_OF_PERICENTER":109.6935,"MEAN_ANOMALY":250.4466,"EPHEMERIS_TYPE":0,"CLASSIFICATION_TYPE":"U","NORAD_CAT_ID":43618,"ELEMENT_SET_NO":999,"REV_AT_EPOCH":40809,"BSTAR":0.00013252792,"MEAN_MOTION_DOT":1.44e-5,"MEAN_MOTION_DDOT":0},{"OBJECT_NAME":"STARLINK-34387","OBJECT_ID":"2025-123AA","EPOCH":"2026-03-09T17:00:24.926976","MEAN_MOTION":14.98336519,"ECCENTRICITY":0.00035853,"INCLINATION":70.0021,"RA_OF_ASC_NODE":194.3144,"ARG_OF_PERICENTER":272.8592,"MEAN_ANOMALY":87.2157,"EPHEMERIS_TYPE":0,"CLASSIFICATION_TYPE":"U","NORAD_CAT_ID":64315,"ELEMENT_SET_NO":999,"REV_AT_EPOCH":4162,"BSTAR":0.00069562307,"MEAN_MOTION_DOT":8.218e-5,"MEAN_MOTION_DDOT":0}]
